OBJECT_NAME,OBJECT_ID,EPOCH,MEAN_MOTION,ECCENTRICITY,INCLINATION,RA_OF_ASC_NODE,ARG_OF_PERICENTER,MEAN_ANOMALY,EPHEMERIS_TYPE,CLASSIFICATION_TYPE,NORAD_CAT_ID,ELEMENT_SET_NO,REV_AT_EPOCH,BSTAR,MEAN_MOTION_DOT,MEAN_MOTION_DDOT
ONEWEB-0395,2021-132G,2026-06-12T01:19:26.532480,13.11417986,.00019838,87.8887,22.0891,89.5217,270.6138,0,U,50475,999,21504,.15920456E-2,.577E-5,0
ONEWEB-0396,2021-132H,2026-06-12T20:12:52.553088,13.18683780,.0001945,87.9170,336.3192,87.7366,272.3989,0,U,50476,999,22106,-.25124E-3,-.86E-6,0
ONEWEB-0397,2021-132J,2026-06-12T20:34:43.907232,13.18685115,.0001896,87.9168,336.3161,84.3768,275.7580,0,U,50477,999,22104,.79938E-4,.44E-6,0
ONEWEB-0398,2021-132K,2026-06-12T20:41:33.705024,13.11415243,.0001902,87.8893,21.9188,94.7827,265.3518,0,U,50478,999,21504,-.13996E-2,-.483E-5,0
ONEWEB-0399,2021-132L,2026-06-12T03:53:14.195040,13.11414683,.00022094,87.8898,22.0687,76.4076,283.7298,0,U,50479,999,21494,-.62980888E-3,-.211E-5,0
ONEWEB-0400,2021-132M,2026-06-12T20:03:10.325088,13.18684931,.0001911,87.9167,336.3104,97.3909,262.7440,0,U,50480,999,22103,.1855E-3,.86E-6,0
ONEWEB-0401,2021-132N,2026-06-12T01:06:50.364864,13.18684752,.00016833,87.9168,336.4646,85.7694,274.3631,0,U,50481,999,22093,.41115105E-4,.29E-6,0
ONEWEB-0402,2021-132P,2026-06-12T20:15:19.306080,13.18685708,.0001602,87.9168,336.2951,78.9122,281.2190,0,U,50482,999,22106,.11253E-3,.57E-6,0
ONEWEB-0403,2021-132Q,2026-06-12T04:28:21.981792,13.18684956,.00019843,87.9168,336.4501,90.3392,269.7968,0,U,50483,999,22093,-.3490765E-4,-.1E-7,0
ONEWEB-0404,2021-132R,2026-06-12T19:55:12.427680,13.11416478,.0002151,87.8893,21.9345,84.3882,275.7491,0,U,50484,999,21512,.16052E-2,.582E-5,0
ONEWEB-0405,2021-132S,2026-06-12T04:47:48.425856,13.18686022,.0001948,87.9170,336.4321,105.6209,254.5138,0,U,50485,999,22133,-.62476384E-4,-.12E-6,0
ONEWEB-0406,2021-132T,2026-06-12T04:35:39.297120,13.18684805,.00023886,87.9163,336.4503,87.8778,272.2628,0,U,50486,999,22096,-.6389433E-5,.1E-6,0
ONEWEB-0407,2021-132U,2026-06-12T04:25:57.046656,13.18685235,.0001622,87.9168,336.4436,93.6489,266.4829,0,U,50487,999,22090,-.11692618E-3,-.33E-6,0
ONEWEB-0409,2021-132V,2026-06-12T03:23:56.971104,13.11416974,.00020973,87.8897,22.0593,87.2553,272.8815,0,U,50488,999,21492,.14088164E-2,.512E-5,0
ONEWEB-0412,2021-132W,2026-06-12T20:32:17.963808,13.18684699,.0001659,87.9166,336.3187,83.2418,276.8903,0,U,50489,999,22108,-.33205E-4,0,0
ONEWEB-0413,2021-132X,2026-06-12T20:39:35.533152,13.18685571,.0001558,87.9157,336.3166,87.6475,272.4836,0,U,50490,999,22102,-.97492E-4,-.26E-6,0
ONEWEB-0414,2021-132Y,2026-06-12T20:17:44.427840,13.18684820,.0001837,87.9168,336.3011,86.5016,273.6327,0,U,50491,999,22105,-.81802E-4,-.19E-6,0
ONEWEB-0417,2021-132Z,2026-06-12T20:29:52.685664,13.18685184,.0002072,87.9159,336.3193,91.1701,268.9668,0,U,50492,999,22103,.15582E-4,.19E-6,0
ONEWEB-0418,2021-132AA,2026-06-12T04:20:54.025440,13.18685954,.00021211,87.9169,336.4523,91.5813,268.5562,0,U,50493,999,22100,.17207723E-3,.81E-6,0
ONEWEB-0419,2021-132AB,2026-06-12T04:47:33.781056,13.18665391,.00020968,87.9165,336.4484,97.4388,262.6982,0,U,50494,999,22092,-.6689574E-5,.1E-6,0
ONEWEB-0420,2021-132AC,2026-06-12T05:46:03.929664,13.18685589,.00016555,87.9160,336.4438,94.4946,265.6375,0,U,50495,999,22092,-.13381862E-4,.8E-7,0
ONEWEB-0421,2021-132AD,2026-06-12T20:10:26.973408,13.18683746,.0001846,87.9165,336.3217,80.1975,279.9366,0,U,50496,999,22104,-.11999E-3,-.34E-6,0
ONEWEB-0424,2021-132AE,2026-06-12T04:40:30.712224,13.18684731,.00020416,87.9167,336.4481,101.2728,258.8633,0,U,50497,999,22098,-.31922818E-4,0,0
ONEWEB-0426,2021-132AF,2026-06-12T20:04:22.692000,13.18688083,.0002363,87.9168,336.3116,78.4384,281.7013,0,U,50498,999,22101,.13256E-3,.65E-6,0
ONEWEB-0427,2021-132AG,2026-06-12T04:38:05.057376,13.18684588,.00020659,87.9168,336.4281,90.2557,269.8812,0,U,50499,999,22095,-.5267597E-4,-.8E-7,0
ONEWEB-0429,2021-132AH,2026-06-12T04:18:39.597408,13.18685613,.00017171,87.9161,336.4556,92.1241,268.0088,0,U,50500,999,22092,-.49276836E-4,-.7E-7,0
ONEWEB-0430,2021-132AJ,2026-06-12T20:25:01.261056,13.18684963,.0001746,87.9162,336.3204,99.9948,260.1381,0,U,50501,999,22105,-.33134E-3,-.118E-5,0
ONEWEB-0432,2021-132AK,2026-06-12T00:00:02.999808,13.17164070,.00020705,87.9166,336.4648,109.1578,358.0541,0,U,50502,999,507,-.19702185E-1,-.7576E-4,0
ONEWEB-0440,2021-132AL,2026-06-12T04:30:47.705760,13.18684987,.00016229,87.9169,336.4478,83.0756,277.0560,0,U,50503,999,22091,.15660911E-3,.75E-6,0
ONEWEB-0450,2021-132AM,2026-06-12T04:21:17.518464,13.18686208,.00016594,87.9157,336.4550,94.3176,265.8145,0,U,50504,999,22094,.94675236E-4,.5E-6,0
