ONEWEB-0395             
1 50475U 21132G   26163.05516820  .00000577  00000+0  15920-2 0  9992
2 50475  87.8887  22.0891 0001983  89.5217 270.6138 13.11417986215044
ONEWEB-0396             
1 50476U 21132H   26163.84227492 -.00000086  00000+0 -25124-3 0  9999
2 50476  87.9170 336.3192 0001945  87.7366 272.3989 13.18683780221065
ONEWEB-0397             
1 50477U 21132J   26163.85745263  .00000044  00000+0  79938-4 0  9997
2 50477  87.9168 336.3161 0001896  84.3768 275.7580 13.18685115221049
ONEWEB-0398             
1 50478U 21132K   26163.86219566 -.00000483  00000+0 -13996-2 0  9990
2 50478  87.8893  21.9188 0001902  94.7827 265.3518 13.11415243215044
ONEWEB-0399             
1 50479U 21132L   26163.16196985 -.00000211  00000+0 -62981-3 0  9991
2 50479  87.8898  22.0687 0002209  76.4076 283.7298 13.11414683214944
ONEWEB-0400             
1 50480U 21132M   26163.83553617  .00000086  00000+0  18550-3 0  9997
2 50480  87.9167 336.3104 0001911  97.3909 262.7440 13.18684931221033
ONEWEB-0401             
1 50481U 21132N   26163.04641626  .00000029  00000+0  41115-4 0  9990
2 50481  87.9168 336.4646 0001683  85.7694 274.3631 13.18684752220935
ONEWEB-0402             
1 50482U 21132P   26163.84397345  .00000057  00000+0  11253-3 0  9995
2 50482  87.9168 336.2951 0001602  78.9122 281.2190 13.18685708221068
ONEWEB-0403             
1 50483U 21132Q   26163.18636553 -.00000001  00000+0 -34908-4 0  9994
2 50483  87.9168 336.4501 0001984  90.3392 269.7968 13.18684956220935
ONEWEB-0404             
1 50484U 21132R   26163.83000495  .00000582  00000+0  16052-2 0  9997
2 50484  87.8893  21.9345 0002151  84.3882 275.7491 13.11416478215124
ONEWEB-0405             
1 50485U 21132S   26163.19986604 -.00000012  00000+0 -62476-4 0  9995
2 50485  87.9170 336.4321 0001948 105.6209 254.5138 13.18686022221339
ONEWEB-0406             
1 50486U 21132T   26163.19142705  .00000010  00000+0 -63894-5 0  9995
2 50486  87.9163 336.4503 0002388  87.8778 272.2628 13.18684805220961
ONEWEB-0407             
1 50487U 21132U   26163.18468804 -.00000033  00000+0 -11693-3 0  9990
2 50487  87.9168 336.4436 0001622  93.6489 266.4829 13.18685235220906
ONEWEB-0409             
1 50488U 21132V   26163.14163161  .00000512  00000+0  14088-2 0  9995
2 50488  87.8897  22.0593 0002097  87.2553 272.8815 13.11416974214921
ONEWEB-0412             
1 50489U 21132W   26163.85576347  .00000000  00000+0 -33205-4 0  9995
2 50489  87.9166 336.3187 0001659  83.2418 276.8903 13.18684699221086
ONEWEB-0413             
1 50490U 21132X   26163.86082793 -.00000026  00000+0 -97492-4 0  9992
2 50490  87.9157 336.3166 0001558  87.6475 272.4836 13.18685571221025
ONEWEB-0414             
1 50491U 21132Y   26163.84565310 -.00000019  00000+0 -81802-4 0  9992
2 50491  87.9168 336.3011 0001837  86.5016 273.6327 13.18684820221053
ONEWEB-0417             
1 50492U 21132Z   26163.85408201  .00000019  00000+0  15582-4 0  9999
2 50492  87.9159 336.3193 0002072  91.1701 268.9668 13.18685184221037
ONEWEB-0418             
1 50493U 21132AA  26163.18118085  .00000081  00000+0  17208-3 0  9999
2 50493  87.9169 336.4523 0002121  91.5813 268.5562 13.18685954221001
ONEWEB-0419             
1 50494U 21132AB  26163.19969654  .00000010  00000+0 -66896-5 0  9999
2 50494  87.9165 336.4484 0002096  97.4388 262.6982 13.18665391220921
ONEWEB-0420             
1 50495U 21132AC  26163.24032326  .00000008  00000+0 -13382-4 0  9991
2 50495  87.9160 336.4438 0001655  94.4946 265.6375 13.18685589220923
ONEWEB-0421             
1 50496U 21132AD  26163.84058997 -.00000034  00000+0 -11999-3 0  9991
2 50496  87.9165 336.3217 0001846  80.1975 279.9366 13.18683746221044
ONEWEB-0424             
1 50497U 21132AE  26163.19479991  .00000000  00000+0 -31923-4 0  9993
2 50497  87.9167 336.4481 0002041 101.2728 258.8633 13.18684731220980
ONEWEB-0426             
1 50498U 21132AF  26163.83637375  .00000065  00000+0  13256-3 0  9995
2 50498  87.9168 336.3116 0002363  78.4384 281.7013 13.18688083221012
ONEWEB-0427             
1 50499U 21132AG  26163.19311409 -.00000008  00000+0 -52676-4 0  9991
2 50499  87.9168 336.4281 0002065  90.2557 269.8812 13.18684588220952
ONEWEB-0429             
1 50500U 21132AH  26163.17962497 -.00000007  00000+0 -49277-4 0  9993
2 50500  87.9161 336.4556 0001717  92.1241 268.0088 13.18685613220920
ONEWEB-0430             
1 50501U 21132AJ  26163.85070904 -.00000118  00000+0 -33134-3 0  9999
2 50501  87.9162 336.3204 0001746  99.9948 260.1381 13.18684963221053
ONEWEB-0432             
1 50502U 21132AK  26163.00003472 -.00007576  00000+0 -19702-1 0  9991
2 50502  87.9166 336.4648 0002070 109.1578 358.0541 13.17164070  5073
ONEWEB-0440             
1 50503U 21132AL  26163.18805215  .00000075  00000+0  15661-3 0  9993
2 50503  87.9169 336.4478 0001622  83.0756 277.0560 13.18684987220916
ONEWEB-0450             
1 50504U 21132AM  26163.18145276  .00000050  00000+0  94675-4 0  9994
2 50504  87.9157 336.4550 0001659  94.3176 265.8145 13.18686208220941
